ENVISAT                 
1 27386U 02009A   23052.53529976  .00000371  00000+0  13579-3 0  9993
2 27386  98.2170  27.3821 0001307  90.2070  19.8531 14.38254692 99332
IDEFIX & ARIANE 42P R/B 
1 27422U 02021B   23052.56217636  .00000465  00000+0  19842-3 0  9991
2 27422  98.4798 356.4595 0011285 218.8704 141.1668 14.29574462 85046
AQUA                    
1 27424U 02022A   23052.58895037  .00001495  00000+0  33760-3 0  9992
2 27424  98.2757 357.5126 0001550 106.4512  66.6519 14.57720152106473
CZ-4B R/B               
1 27432U 02024C   23052.52036580  .00000076  00000+0  63545-4 0  9996
2 27432  99.0387  85.8543 0049440 293.7878 188.8225 14.14183765 72029
MIDORI II (ADEOS-II)    
1 27597U 02056A   23052.55310138  .00000544  00000+0  23796-3 0  9993
2 27597  98.6367 358.0546 0001668  48.0191 312.1132 14.27778090 51516
H-2A R/B                
1 27601U 02056E   23052.63721234  .00000420  00000+0  16614-3 0  9995
2 27601  98.1868  50.2081 0070785 237.4681 235.9647 14.32246160 54848
CZ-4B R/B               
1 28059U 03049C   23052.40702660  .00000804  00000+0  20334-3 0  9993
2 28059  98.5478 358.4688 0050436  28.1973 332.1936 14.53004456 24967
CZ-2C R/B               
1 28222U 04012C   23052.55233899  .00008899  00000+0  46600-3 0  9991
2 28222  97.7963  43.7613 0039998 278.5618  81.1082 15.15363514 33941
SL-16 R/B               
1 28353U 04021B   23052.38845581  .00000066  00000+0  59289-4 0  9990
2 28353  71.0000  46.1565 0007266 281.5776  78.4530 14.14298226965540
CZ-4B R/B               
1 28415U 04035C   23052.36575250  .00004526  00000+0  27792-3 0  9993
2 28415  97.4854  92.1855 0046890 245.6284 114.0047 15.09679674 11134
CZ-2C R/B               
1 28480U 04046B   23052.51463326  .00000186  00000+0  85477-4 0  9997
2 28480  98.0964  26.0048 0140901 204.1154 155.3388 14.25951678949948
ARIANE 5 R/B            
1 28499U 04049H   23052.37427337  .00001176  00000+0  14928-3 0  9998
2 28499  98.1180 176.8046 0090591 351.1013  74.3281 14.80885648980915
CZ-2D R/B               
1 28738U 05024B   23052.52151132  .00007888  00000+0  41112-3 0  9993
2 28738  97.3544  57.3838 0012275  42.7102 317.5083 15.16176845969453
SUZAKU (ASTRO-EII)      
1 28773U 05025A   23052.47791557  .00012786  00000+0  49189-3 0  9993
2 28773  31.3802 109.9370 0003217  34.8518 325.2342 15.25168334973016
ALOS (DAICHI)           
1 28931U 06002A   23052.40018814  .00002753  00000+0  53698-3 0  9999
2 28931  97.9718  13.4911 0000806  99.4089 260.7134 14.63744378910839
H-2A R/B                
1 28932U 06002B   23052.19081640  .00004633  00000+0  40063-3 0  9994
2 28932  98.2577 112.9991 0083886 355.9724   4.0810 14.95029745927281
AKARI (ASTRO-F)         
1 28939U 06005A   23052.56267033  .00176555  00000+0  11933-2 0  9993
2 28939  98.1793 166.7252 0033523  95.9986 264.5098 15.73751861931798
CZ-4B R/B               
1 29093U 06015B   23052.22120920  .00213432  18686-4  71759-3 0  9995
2 29093  97.5562 296.9682 0016106 341.5339  18.5347 15.89841290938558
RESURS-DK 1             
1 29228U 06021A   23052.56184115  .00003311  00000+0  24541-3 0  9991
2 29228  69.9350 213.8267 0003485 352.6757   7.4353 15.04112299919826
GENESIS 1               
1 29252U 06029A   23052.50148555  .00010958  00000+0  44833-3 0  9999
2 29252  64.5239 331.6714 0039767 225.2375 134.5514 15.24014438916870
CZ-4B R/B               
1 29507U 06046C   23052.52105914  .00003935  00000+0  29065-3 0  9992
2 29507  97.6998  86.3886 0045376 111.8243 248.7818 15.02994193892265
CZ-2C R/B               
1 31114U 07010B   23052.45296454  .00000216  00000+0  11959-3 0  9995
2 31114  98.2612 213.6521 0058588 292.2327  67.2643 14.19506305821880
COSMO-SKYMED 1          
1 31598U 07023A   23052.51586624 -.00000456  00000+0 -50788-4 0  9995
2 31598  97.8891 237.6499 0001283  82.9023 277.2431 14.82141025849856
GENESIS 2               
1 31789U 07028A   23052.36862354  .00012377  00000+0  50973-3 0  9990
2 31789  64.4971  15.9559 0059294 278.0077  81.4322 15.22817709863756
COSMOS 2428             
1 31792U 07029A   23052.32638699 -.00000223  00000+0 -94681-4 0  9998
2 31792  70.9436  17.9023 0008633  25.9029 334.2522 14.12572299806997
SL-16 R/B               
1 31793U 07029B   23052.54936125  .00000094  00000+0  73913-4 0  9997
2 31793  70.9775 349.5536 0002654 261.2341 271.5140 14.14506911808087
KORONAS-FOTON           
1 33504U 09003A   23052.32088156  .00004586  00000+0  21674-3 0  9997
2 33504  82.4436 327.3964 0019347 122.7303 237.5799 15.18992733775717
CZ-2C R/B               
1 37731U 11030B   23052.57915778  .00002268  00000+0  33070-3 0  9990
2 37731  97.7012  31.7616 0058598   3.1302  60.9979 14.75588686625783
H-2A R/B                
1 38341U 12025E   23052.57958877  .00002436  00000+0  28259-3 0  9990
2 38341  98.4735 289.0483 0053349 326.2202  33.5616 14.85479110582629
CUSAT 2 & FALCON 9 R/B  
1 39271U 13055G   23052.62202315  .00039558  00000+0  76214-3 0  9991
2 39271  80.9496 278.3805 0478276  64.2623 300.7141 14.75824077493344
SHIJIAN-16 (SJ-16)      
1 39358U 13057A   23052.47848407  .00003196  00000+0  36105-3 0  9994
2 39358  74.9752 121.1967 0020064 279.7797  80.1017 14.86722140505991
CZ-2C R/B               
1 39364U 13059B   23052.38938926  .00020615  00000+0  55104-3 0  9994
2 39364  97.1234 102.5474 0038247 155.7710 204.5345 15.37337542518362
SL-4 R/B                
1 39679U 14021B   23052.54708210  .00008680  00000+0  39254-3 0  9998
2 39679  51.6112 234.2789 0158565 105.9151 255.9359 15.11188051486747
ALOS-2                  
1 39766U 14029A   23052.49668652 -.00000447  00000+0 -53017-4 0  9991
2 39766  97.9208 151.0589 0001559  90.2571 269.8833 14.79468247472454
SL-27 R/B               
1 40354U 14084B   23052.60681631  .00019045  00000+0  35039-3 0  9997
2 40354  74.7372 155.3877 0029706 212.2119 147.7285 15.48623679459098
YAOGAN-29               
1 41038U 15069A   23052.39030327  .00001226  00000+0  16467-3 0  9993
2 41038  98.0634  58.8681 0002019  57.3177 302.8226 14.81132610391133
ASTRO-H (HITOMI)        
1 41337U 16012A   23052.31557216  .00002870  00000+0  21665-3 0  9999
2 41337  31.0043 279.1687 0011962  28.4376 331.6911 15.00337133384511
HXMT (HUIYAN)           
1 42758U 17034A   23052.40439774  .00008492  00000+0  49042-3 0  9995
2 42758  43.0171  57.5075 0009643  43.5948 116.4613 15.12544667313840
CZ-2C R/B               
1 43521U 18054D   23051.96157892  .00011962  00000+0  56664-3 0  9999
2 43521  35.1509 257.1890 0073029 126.2694 234.4796 15.16172421257372
AEOLUS                  
1 43600U 18066A   23052.53314127  .00149762  00000+0  57248-3 0  9999
2 43600  96.7268  59.6092 0009664 111.6472 248.5832 15.87025007260624
SAOCOM 1A               
1 43641U 18076A   23052.52420922 -.00000610  00000+0 -70114-4 0  9993
2 43641  97.8867 240.6601 0001332  83.3196 276.8234 14.82147788236624
H-2A R/B                
1 43682U 18084L   23052.55856886  .00006883  00000+0  45361-3 0  9993
2 43682  98.9003  58.5950 0053080 163.3929 196.9049 15.06744589236799
SAOCOM 1B               
1 46265U 20059A   23052.48784681  .00001133  00000+0  14881-3 0  9999
2 46265  97.8870 239.6901 0001354  96.8816 263.2575 14.82153552134010
CSS (TIANHE)            
1 48274U 21035A   23052.60711866  .00016511  00000+0  19233-3 0  9997
2 48274  41.4747 140.7762 0004749 293.8021 169.3426 15.61290691103757
2022-019U               
1 51842U 22019U   23052.69654366  .00018296  00000+0  61552-3 0  9998
2 51842  97.5362 137.5872 0061532  33.2899 119.4632 15.28999073 54781
SZ-13 MODULE            
1 52260U 21092C   23052.48303730  .00402524  82804-4  49395-3 0  9995
2 52260  41.4689  98.0714 0010662 118.9401 241.2525 16.06960248 48765
CZ-2C R/B               
1 52794U 22058K   23045.56671250  .00010465  00000+0  53488-3 0  9996
2 52794  50.1732  99.4815 0099997 337.8303  21.8341 15.12895223 38911
CZ-2C R/B               
1 53131U 22082D   23052.52952133  .00025008  00000+0  56710-3 0  9995
2 53131  97.3542  66.0773 0040105 299.5715  60.1538 15.42197024 33905
CREW DRAGON 4 DEB       
1 54047U 22042B   23052.50086784  .00179565  00000+0  11641-2 0  9997
2 54047  51.3219 165.7041 0002335 347.6087  12.4366 15.74928267 20279
